{
  "type": "FeatureCollection",
  "features": [
    {
      "type": "Feature",
      "properties": {
        "norad_id": 36046,
        "name": "COSMOS 2251 DEB",
        "group": "cosmos-2251-debris",
        "lat": -45.94521935239854,
        "lon": 114.3671924359184,
        "alt_km": 720.485594656333,
        "timestamp": "2025-12-12T09:49:09.129122+00:00",
        "meta_object_name": "COSMOS 2251 DEB",
        "meta_object_id": "1993-036AXH",
        "meta_epoch": "2025-12-11T13:55:44.742144",
        "meta_mean_motion": 14.65256502,
        "meta_eccentricity": 0.00555409,
        "meta_inclination": 74.0167,
        "meta_ra_of_asc_node": 278.7315,
        "meta_arg_of_pericenter": 65.0167,
        "meta_mean_anomaly": 113.2928,
        "meta_ephemeris_type": 0,
        "meta_classification_type": "U",
        "meta_norad_cat_id": 36046,
        "meta_element_set_no": 999,
        "meta_rev_at_epoch": 63986,
        "meta_bstar": 0.001021587,
        "meta_mean_motion_dot": 5.605e-05,
        "meta_mean_motion_ddot": 0,
        "tle_line1": "1 36046U 93036AXH 25345.58037896  .00005605  00000+0  10216-2 0  9992",
        "tle_line2": "2 36046  74.0167 278.7315 0055540  65.0167 113.2928 14.65256502639867"
      },
      "geometry": {
        "type": "Point",
        "coordinates": [
          114.3671924359184,
          -45.94521935239854
        ]
      }
    },
    {
      "type": "Feature",
      "properties": {
        "norad_id": 36047,
        "name": "COSMOS 2251 DEB",
        "group": "cosmos-2251-debris",
        "lat": 53.26541162746822,
        "lon": 132.27095782646884,
        "alt_km": 577.240733703009,
        "timestamp": "2025-12-12T09:49:09.129132+00:00",
        "meta_object_name": "COSMOS 2251 DEB",
        "meta_object_id": "1993-036AXJ",
        "meta_epoch": "2025-12-11T05:58:59.566656",
        "meta_mean_motion": 14.95837806,
        "meta_eccentricity": 0.00082013,
        "meta_inclination": 74.036,
        "meta_ra_of_asc_node": 337.1667,
        "meta_arg_of_pericenter": 3.2203,
        "meta_mean_anomaly": 356.9033,
        "meta_ephemeris_type": 0,
        "meta_classification_type": "U",
        "meta_norad_cat_id": 36047,
        "meta_element_set_no": 999,
        "meta_rev_at_epoch": 65917,
        "meta_bstar": 0.0036964515,
        "meta_mean_motion_dot": 0.00041538,
        "meta_mean_motion_ddot": 0,
        "tle_line1": "1 36047U 93036AXJ 25345.24930054  .00041538  00000+0  36965-2 0  9998",
        "tle_line2": "2 36047  74.0360 337.1667 0008201   3.2203 356.9033 14.95837806659174"
      },
      "geometry": {
        "type": "Point",
        "coordinates": [
          132.27095782646884,
          53.26541162746822
        ]
      }
    },
    {
      "type": "Feature",
      "properties": {
        "norad_id": 36048,
        "name": "COSMOS 2251 DEB",
        "group": "cosmos-2251-debris",
        "lat": 54.59327168360129,
        "lon": 96.18286918310494,
        "alt_km": 772.7495263631745,
        "timestamp": "2025-12-12T09:49:09.129143+00:00",
        "meta_object_name": "COSMOS 2251 DEB",
        "meta_object_id": "1993-036AXK",
        "meta_epoch": "2025-12-10T07:51:23.656896",
        "meta_mean_motion": 14.3784538,
        "meta_eccentricity": 0.0026514,
        "meta_inclination": 74.0571,
        "meta_ra_of_asc_node": 303.7212,
        "meta_arg_of_pericenter": 354.2337,
        "meta_mean_anomaly": 156.0655,
        "meta_ephemeris_type": 0,
        "meta_classification_type": "U",
        "meta_norad_cat_id": 36048,
        "meta_element_set_no": 999,
        "meta_rev_at_epoch": 85467,
        "meta_bstar": 0.00048763,
        "meta_mean_motion_dot": 1.45e-05,
        "meta_mean_motion_ddot": 0,
        "tle_line1": "1 36048U 93036AXK 25344.32735714  .00001450  00000+0  48763-3 0  9992",
        "tle_line2": "2 36048  74.0571 303.7212 0026514 354.2337 156.0655 14.37845380854671"
      },
      "geometry": {
        "type": "Point",
        "coordinates": [
          96.18286918310494,
          54.59327168360129
        ]
      }
    },
    {
      "type": "Feature",
      "properties": {
        "norad_id": 36049,
        "name": "COSMOS 2251 DEB",
        "group": "cosmos-2251-debris",
        "lat": -18.199188670948452,
        "lon": -54.78120326730862,
        "alt_km": 683.2999997179977,
        "timestamp": "2025-12-12T09:49:09.129153+00:00",
        "meta_object_name": "COSMOS 2251 DEB",
        "meta_object_id": "1993-036AXL",
        "meta_epoch": "2025-12-10T15:51:32.776128",
        "meta_mean_motion": 14.62096087,
        "meta_eccentricity": 0.0010896,
        "meta_inclination": 74.0301,
        "meta_ra_of_asc_node": 123.1637,
        "meta_arg_of_pericenter": 209.0948,
        "meta_mean_anomaly": 150.9613,
        "meta_ephemeris_type": 0,
        "meta_classification_type": "U",
        "meta_norad_cat_id": 36049,
        "meta_element_set_no": 999,
        "meta_rev_at_epoch": 85334,
        "meta_bstar": 0.0024714,
        "meta_mean_motion_dot": 0.00012422,
        "meta_mean_motion_ddot": 0,
        "tle_line1": "1 36049U 93036AXL 25344.66079602  .00012422  00000+0  24714-2 0  9997",
        "tle_line2": "2 36049  74.0301 123.1637 0010896 209.0948 150.9613 14.62096087853349"
      },
      "geometry": {
        "type": "Point",
        "coordinates": [
          -54.78120326730862,
          -18.199188670948452
        ]
      }
    },
    {
      "type": "Feature",
      "properties": {
        "norad_id": 36050,
        "name": "COSMOS 2251 DEB",
        "group": "cosmos-2251-debris",
        "lat": -41.12536628031201,
        "lon": 29.17833545752863,
        "alt_km": 531.0247892224888,
        "timestamp": "2025-12-12T09:49:09.129163+00:00",
        "meta_object_name": "COSMOS 2251 DEB",
        "meta_object_id": "1993-036AXM",
        "meta_epoch": "2025-12-10T07:13:56.773056",
        "meta_mean_motion": 15.00978663,
        "meta_eccentricity": 0.0088905,
        "meta_inclination": 74.0317,
        "meta_ra_of_asc_node": 198.9901,
        "meta_arg_of_pericenter": 279.1661,
        "meta_mean_anomaly": 79.9477,
        "meta_ephemeris_type": 0,
        "meta_classification_type": "U",
        "meta_norad_cat_id": 36050,
        "meta_element_set_no": 999,
        "meta_rev_at_epoch": 66998,
        "meta_bstar": 0.00072759,
        "meta_mean_motion_dot": 0.00010072,
        "meta_mean_motion_ddot": 0,
        "tle_line1": "1 36050U 93036AXM 25344.30135154  .00010072  00000+0  72759-3 0  9997",
        "tle_line2": "2 36050  74.0317 198.9901 0088905 279.1661  79.9477 15.00978663669983"
      },
      "geometry": {
        "type": "Point",
        "coordinates": [
          29.17833545752863,
          -41.12536628031201
        ]
      }
    },
    {
      "type": "Feature",
      "properties": {
        "norad_id": 36053,
        "name": "COSMOS 2251 DEB",
        "group": "cosmos-2251-debris",
        "lat": -3.2289081187123627,
        "lon": -25.74482361573931,
        "alt_km": 701.5672181418204,
        "timestamp": "2025-12-12T09:49:09.129196+00:00",
        "meta_object_name": "COSMOS 2251 DEB",
        "meta_object_id": "1993-036AXQ",
        "meta_epoch": "2025-12-12T04:02:28.674816",
        "meta_mean_motion": 14.57165244,
        "meta_eccentricity": 0.0032636,
        "meta_inclination": 73.8708,
        "meta_ra_of_asc_node": 153.7815,
        "meta_arg_of_pericenter": 103.0274,
        "meta_mean_anomaly": 257.4536,
        "meta_ephemeris_type": 0,
        "meta_classification_type": "U",
        "meta_norad_cat_id": 36053,
        "meta_element_set_no": 999,
        "meta_rev_at_epoch": 87436,
        "meta_bstar": 0.0023424,
        "meta_mean_motion_dot": 0.00010633,
        "meta_mean_motion_ddot": 0,
        "tle_line1": "1 36053U 93036AXQ 25346.16838744  .00010633  00000+0  23424-2 0  9998",
        "tle_line2": "2 36053  73.8708 153.7815 0032636 103.0274 257.4536 14.57165244874368"
      },
      "geometry": {
        "type": "Point",
        "coordinates": [
          -25.74482361573931,
          -3.2289081187123627
        ]
      }
    },
    {
      "type": "Feature",
      "properties": {
        "norad_id": 36058,
        "name": "COSMOS 2251 DEB",
        "group": "cosmos-2251-debris",
        "lat": -49.41977543233629,
        "lon": 14.549048070471283,
        "alt_km": 727.9210801672798,
        "timestamp": "2025-12-12T09:49:09.129208+00:00",
        "meta_object_name": "COSMOS 2251 DEB",
        "meta_object_id": "1993-036AXV",
        "meta_epoch": "2025-12-09T21:09:28.031616",
        "meta_mean_motion": 14.58669067,
        "meta_eccentricity": 0.00447805,
        "meta_inclination": 74.0233,
        "meta_ra_of_asc_node": 38.9054,
        "meta_arg_of_pericenter": 173.9779,
        "meta_mean_anomaly": 186.1934,
        "meta_ephemeris_type": 0,
        "meta_classification_type": "U",
        "meta_norad_cat_id": 36058,
        "meta_element_set_no": 999,
        "meta_rev_at_epoch": 66069,
        "meta_bstar": 0.00079291916,
        "meta_mean_motion_dot": 3.72e-05,
        "meta_mean_motion_ddot": 0,
        "tle_line1": "1 36058U 93036AXV 25343.88157444  .00003720  00000+0  79292-3 0  9994",
        "tle_line2": "2 36058  74.0233  38.9054 0044780 173.9779 186.1934 14.58669067660699"
      },
      "geometry": {
        "type": "Point",
        "coordinates": [
          14.549048070471283,
          -49.41977543233629
        ]
      }
    }
  ]
}